{
  "basename": "osm-planet.mbtiles",
  "id": "openmaptiles",
  "filesize": 75031430656,
  "attribution": "<a href=\"https://www.maptiler.com/copyright/\" target=\"_blank\">&copy; MapTiler</a> <a href=\"https://www.openstreetmap.org/copyright\" target=\"_blank\">&copy; OpenStreetMap contributors</a>",
  "bounds": [
    -180,
    -85.0511,
    180,
    85.0511
  ],
  "center": [
    -12.2168,
    28.6135,
    4
  ],
  "description": "A tileset showcasing all layers in OpenMapTiles. https://openmaptiles.org",
  "format": "pbf",
  "maxzoom": 7,
  "minzoom": 0,
  "name": "OpenMapTiles",
  "scheme": "xyz",
  "vector_layers": [
    {
      "maxzoom": 7,
      "fields": {
        "brunnel": "String",
        "class": "String",
        "intermittent": "Number"
      },
      "minzoom": 0,
      "id": "water",
      "description": ""
    },
    {
      "maxzoom": 7,
      "fields": {
        "name:mt": "String",
        "name:pt": "String",
        "name:az": "String",
        "name:id": "String",
        "name:cy": "String",
        "name:rm": "String",
        "name:ko": "String",
        "name:kn": "String",
        "name:ar": "String",
        "name:cs": "String",
        "name:co": "String",
        "name:tr": "String",
        "name_de": "String",
        "name:ro": "String",
        "name:am": "String",
        "name:it": "String",
        "name:ru": "String",
        "name:ml": "String",
        "name:pl": "String",
        "name:ca": "String",
        "name_int": "String",
        "name:hu": "String",
        "name:ka": "String",
        "name:fi": "String",
        "name:da": "String",
        "name:de": "String",
        "name:oc": "String",
        "name:fr": "String",
        "name:mk": "String",
        "name:sl": "String",
        "name:nonlatin": "String",
        "name:fy": "String",
        "name:zh": "String",
        "name:ku": "String",
        "name:ko_rm": "String",
        "name:lv": "String",
        "name:ja": "String",
        "name:lt": "String",
        "name:no": "String",
        "brunnel": "String",
        "name:kk": "String",
        "name:sv": "String",
        "name:he": "String",
        "name:ja_rm": "String",
        "name:ga": "String",
        "name:br": "String",
        "name:bs": "String",
        "name:lb": "String",
        "name:sr-Latn": "String",
        "name:la": "String",
        "name:sk": "String",
        "name:uk": "String",
        "name:hy": "String",
        "name:be": "String",
        "name_en": "String",
        "name:bg": "String",
        "name:hr": "String",
        "name:sr": "String",
        "name:sq": "String",
        "name:el": "String",
        "name:eo": "String",
        "name:en": "String",
        "name": "String",
        "name:gd": "String",
        "name:ja_kana": "String",
        "intermittent": "Number",
        "name:is": "String",
        "class": "String",
        "name:th": "String",
        "name:latin": "String",
        "name:eu": "String",
        "name:et": "String",
        "name:nl": "String",
        "name:es": "String"
      },
      "minzoom": 0,
      "id": "waterway",
      "description": ""
    },
    {
      "maxzoom": 7,
      "fields": {
        "class": "String",
        "subclass": "String"
      },
      "minzoom": 0,
      "id": "landcover",
      "description": ""
    },
    {
      "maxzoom": 7,
      "fields": {
        "class": "String"
      },
      "minzoom": 0,
      "id": "landuse",
      "description": ""
    },
    {
      "maxzoom": 7,
      "fields": {
        "name:mt": "String",
        "name:pt": "String",
        "name:az": "String",
        "name:id": "String",
        "name:cy": "String",
        "name:rm": "String",
        "name:ko": "String",
        "name:kn": "String",
        "name:ar": "String",
        "name:cs": "String",
        "rank": "Number",
        "name:co": "String",
        "name:tr": "String",
        "name_de": "String",
        "name:ro": "String",
        "name:am": "String",
        "name:it": "String",
        "name:ru": "String",
        "name:ml": "String",
        "name:pl": "String",
        "ele": "Number",
        "name:ca": "String",
        "name_int": "String",
        "name:hu": "String",
        "name:ka": "String",
        "name:fi": "String",
        "name:da": "String",
        "name:de": "String",
        "name:oc": "String",
        "name:fr": "String",
        "name:mk": "String",
        "name:sl": "String",
        "name:nonlatin": "String",
        "name:fy": "String",
        "name:zh": "String",
        "name:ku": "String",
        "name:ko_rm": "String",
        "name:lv": "String",
        "name:ja": "String",
        "name:lt": "String",
        "name:no": "String",
        "name:kk": "String",
        "name:sv": "String",
        "name:he": "String",
        "name:ja_rm": "String",
        "name:ga": "String",
        "name:br": "String",
        "name:bs": "String",
        "name:lb": "String",
        "name:sr-Latn": "String",
        "name:la": "String",
        "name:sk": "String",
        "name:uk": "String",
        "name:hy": "String",
        "name:be": "String",
        "name_en": "String",
        "name:bg": "String",
        "name:hr": "String",
        "name:sr": "String",
        "name:sq": "String",
        "name:el": "String",
        "name:eo": "String",
        "name:en": "String",
        "name": "String",
        "name:gd": "String",
        "ele_ft": "Number",
        "name:ja_kana": "String",
        "name:is": "String",
        "class": "String",
        "name:th": "String",
        "name:latin": "String",
        "name:eu": "String",
        "name:et": "String",
        "name:nl": "String",
        "name:es": "String"
      },
      "minzoom": 0,
      "id": "mountain_peak",
      "description": ""
    },
    {
      "maxzoom": 7,
      "fields": {
        "name:mt": "String",
        "name:pt": "String",
        "name:az": "String",
        "name:id": "String",
        "name:cy": "String",
        "name:rm": "String",
        "name:ko": "String",
        "name:kn": "String",
        "name:ar": "String",
        "name:cs": "String",
        "rank": "Number",
        "name:co": "String",
        "name:tr": "String",
        "name_de": "String",
        "name:ro": "String",
        "name:am": "String",
        "name:it": "String",
        "name:ru": "String",
        "name:ml": "String",
        "name:pl": "String",
        "name:ca": "String",
        "name_int": "String",
        "name:hu": "String",
        "name:ka": "String",
        "name:fi": "String",
        "name:da": "String",
        "name:de": "String",
        "name:oc": "String",
        "name:fr": "String",
        "name:mk": "String",
        "name:sl": "String",
        "name:nonlatin": "String",
        "name:fy": "String",
        "name:zh": "String",
        "name:ku": "String",
        "name:ko_rm": "String",
        "name:lv": "String",
        "name:ja": "String",
        "name:lt": "String",
        "name:no": "String",
        "name:kk": "String",
        "name:sv": "String",
        "name:he": "String",
        "name:ja_rm": "String",
        "name:ga": "String",
        "name:br": "String",
        "name:bs": "String",
        "name:lb": "String",
        "name:sr-Latn": "String",
        "name:la": "String",
        "name:sk": "String",
        "name:sr": "String",
        "name:uk": "String",
        "name:hy": "String",
        "name:be": "String",
        "name_en": "String",
        "name:bg": "String",
        "name:hr": "String",
        "class": "String",
        "name:sq": "String",
        "name:el": "String",
        "name:eo": "String",
        "name:en": "String",
        "name": "String",
        "name:gd": "String",
        "name:ja_kana": "String",
        "name:is": "String",
        "name:th": "String",
        "name:latin": "String",
        "name:eu": "String",
        "name:et": "String",
        "name:nl": "String",
        "name:es": "String"
      },
      "minzoom": 0,
      "id": "park",
      "description": ""
    },
    {
      "maxzoom": 7,
      "fields": {
        "admin_level": "Number",
        "disputed_name": "String",
        "disputed": "Number",
        "maritime": "Number",
        "claimed_by": "String"
      },
      "minzoom": 0,
      "id": "boundary",
      "description": ""
    },
    {
      "maxzoom": 7,
      "fields": {
        "ref": "String",
        "class": "String"
      },
      "minzoom": 0,
      "id": "aeroway",
      "description": ""
    },
    {
      "maxzoom": 7,
      "fields": {
        "layer": "Number",
        "bicycle": "String",
        "service": "String",
        "level": "Number",
        "brunnel": "String",
        "indoor": "Number",
        "ramp": "Number",
        "horse": "String",
        "subclass": "String",
        "surface": "String",
        "oneway": "Number",
        "foot": "String",
        "mtb_scale": "String",
        "class": "String"
      },
      "minzoom": 0,
      "id": "transportation",
      "description": ""
    },
    {
      "maxzoom": 7,
      "fields": {
        "render_min_height": "Number",
        "hide_3d": "Boolean",
        "colour": "String",
        "render_height": "Number"
      },
      "minzoom": 0,
      "id": "building",
      "description": ""
    },
    {
      "maxzoom": 7,
      "fields": {
        "name:mt": "String",
        "name:pt": "String",
        "name:az": "String",
        "name:id": "String",
        "name:cy": "String",
        "name:rm": "String",
        "name:ko": "String",
        "name:kn": "String",
        "name:ar": "String",
        "name:cs": "String",
        "name:co": "String",
        "name:tr": "String",
        "name_de": "String",
        "name:ro": "String",
        "name:am": "String",
        "name:it": "String",
        "name:ru": "String",
        "name:ml": "String",
        "name:pl": "String",
        "name:ca": "String",
        "name_int": "String",
        "name:hu": "String",
        "name:ka": "String",
        "name:fi": "String",
        "name:da": "String",
        "name:de": "String",
        "name:oc": "String",
        "name:fr": "String",
        "name:mk": "String",
        "name:sl": "String",
        "name:nonlatin": "String",
        "name:fy": "String",
        "name:zh": "String",
        "name:ku": "String",
        "name:ko_rm": "String",
        "name:lv": "String",
        "name:ja": "String",
        "name:lt": "String",
        "name:no": "String",
        "name:kk": "String",
        "name:sv": "String",
        "name:he": "String",
        "name:ja_rm": "String",
        "name:ga": "String",
        "name:br": "String",
        "name:bs": "String",
        "name:lb": "String",
        "name:sr-Latn": "String",
        "name:la": "String",
        "name:sk": "String",
        "name:uk": "String",
        "name:hy": "String",
        "name:be": "String",
        "name_en": "String",
        "name:bg": "String",
        "name:hr": "String",
        "name:sr": "String",
        "name:sq": "String",
        "name:el": "String",
        "name:eo": "String",
        "name:en": "String",
        "name": "String",
        "name:gd": "String",
        "name:ja_kana": "String",
        "intermittent": "Number",
        "name:is": "String",
        "class": "String",
        "name:th": "String",
        "name:latin": "String",
        "name:eu": "String",
        "name:et": "String",
        "name:nl": "String",
        "name:es": "String"
      },
      "minzoom": 0,
      "id": "water_name",
      "description": ""
    },
    {
      "maxzoom": 7,
      "fields": {
        "name:mt": "String",
        "name:pt": "String",
        "name:az": "String",
        "name:id": "String",
        "name:cy": "String",
        "name:rm": "String",
        "name:ko": "String",
        "name:kn": "String",
        "name:ar": "String",
        "name:cs": "String",
        "layer": "Number",
        "name:co": "String",
        "name:tr": "String",
        "name_de": "String",
        "name:ro": "String",
        "name:am": "String",
        "name:it": "String",
        "name:ru": "String",
        "name:ml": "String",
        "name:pl": "String",
        "name:ca": "String",
        "name_int": "String",
        "name:hu": "String",
        "name:ka": "String",
        "name:fi": "String",
        "name:da": "String",
        "subclass": "String",
        "name:de": "String",
        "indoor": "Number",
        "name:oc": "String",
        "name:fr": "String",
        "name:mk": "String",
        "name:sl": "String",
        "name:nonlatin": "String",
        "name:fy": "String",
        "name:zh": "String",
        "name:ku": "String",
        "name:ko_rm": "String",
        "name:lv": "String",
        "name:ja": "String",
        "name:lt": "String",
        "name:no": "String",
        "name:kk": "String",
        "name:sv": "String",
        "name:he": "String",
        "name:ja_rm": "String",
        "name:ga": "String",
        "name:br": "String",
        "name:bs": "String",
        "name:lb": "String",
        "name:sr-Latn": "String",
        "name:la": "String",
        "name:sk": "String",
        "name:uk": "String",
        "name:hy": "String",
        "name:be": "String",
        "name_en": "String",
        "name:bg": "String",
        "name:hr": "String",
        "name:sr": "String",
        "name:sq": "String",
        "network": "String",
        "name:el": "String",
        "name:eo": "String",
        "name:en": "String",
        "name": "String",
        "name:gd": "String",
        "ref": "String",
        "name:ja_kana": "String",
        "level": "Number",
        "ref_length": "Number",
        "name:is": "String",
        "class": "String",
        "name:th": "String",
        "name:latin": "String",
        "name:eu": "String",
        "name:et": "String",
        "name:nl": "String",
        "name:es": "String"
      },
      "minzoom": 0,
      "id": "transportation_name",
      "description": ""
    },
    {
      "maxzoom": 7,
      "fields": {
        "name:mt": "String",
        "name:pt": "String",
        "name:az": "String",
        "name:id": "String",
        "name:cy": "String",
        "name:rm": "String",
        "name:ko": "String",
        "name:kn": "String",
        "name:ar": "String",
        "name:cs": "String",
        "rank": "Number",
        "name:co": "String",
        "name:tr": "String",
        "name_de": "String",
        "name:ro": "String",
        "name:am": "String",
        "name:it": "String",
        "name:ru": "String",
        "name:ml": "String",
        "name:pl": "String",
        "name:ca": "String",
        "name_int": "String",
        "name:hu": "String",
        "name:ka": "String",
        "name:fi": "String",
        "name:da": "String",
        "name:de": "String",
        "name:oc": "String",
        "name:fr": "String",
        "name:mk": "String",
        "name:sl": "String",
        "name:nonlatin": "String",
        "name:fy": "String",
        "name:zh": "String",
        "capital": "Number",
        "name:ku": "String",
        "name:ko_rm": "String",
        "name:lv": "String",
        "name:ja": "String",
        "name:lt": "String",
        "name:no": "String",
        "name:kk": "String",
        "name:sv": "String",
        "name:he": "String",
        "name:ja_rm": "String",
        "name:ga": "String",
        "name:br": "String",
        "name:bs": "String",
        "name:lb": "String",
        "name:sr-Latn": "String",
        "name:la": "String",
        "name:sk": "String",
        "name:uk": "String",
        "name:hy": "String",
        "name:be": "String",
        "name_en": "String",
        "name:bg": "String",
        "name:hr": "String",
        "name:sr": "String",
        "name:sq": "String",
        "name:el": "String",
        "name:eo": "String",
        "name:en": "String",
        "name": "String",
        "name:gd": "String",
        "iso_a2": "String",
        "name:ja_kana": "String",
        "name:is": "String",
        "class": "String",
        "name:th": "String",
        "name:latin": "String",
        "name:eu": "String",
        "name:et": "String",
        "name:nl": "String",
        "name:es": "String"
      },
      "minzoom": 0,
      "id": "place",
      "description": ""
    },
    {
      "maxzoom": 7,
      "fields": {
        "housenumber": "String"
      },
      "minzoom": 0,
      "id": "housenumber",
      "description": ""
    },
    {
      "maxzoom": 7,
      "fields": {
        "name:mt": "String",
        "name:pt": "String",
        "name:az": "String",
        "name:id": "String",
        "name:cy": "String",
        "name:rm": "String",
        "name:ko": "String",
        "name:kn": "String",
        "name:ar": "String",
        "name:cs": "String",
        "layer": "Number",
        "rank": "Number",
        "name:co": "String",
        "name:tr": "String",
        "name_de": "String",
        "name:ro": "String",
        "name:am": "String",
        "name:it": "String",
        "name:ru": "String",
        "name:ml": "String",
        "name:pl": "String",
        "name:ca": "String",
        "name_int": "String",
        "name:hu": "String",
        "name:ka": "String",
        "name:fi": "String",
        "name:da": "String",
        "subclass": "String",
        "name:de": "String",
        "indoor": "Number",
        "name:oc": "String",
        "name:fr": "String",
        "name:mk": "String",
        "name:sl": "String",
        "name:nonlatin": "String",
        "name:fy": "String",
        "name:zh": "String",
        "name:ku": "String",
        "name:ko_rm": "String",
        "name:lv": "String",
        "name:ja": "String",
        "name:lt": "String",
        "name:no": "String",
        "name:kk": "String",
        "name:sv": "String",
        "name:he": "String",
        "name:ja_rm": "String",
        "name:ga": "String",
        "name:br": "String",
        "name:bs": "String",
        "name:lb": "String",
        "name:sr-Latn": "String",
        "name:la": "String",
        "name:sk": "String",
        "name:uk": "String",
        "name:hy": "String",
        "name:be": "String",
        "name_en": "String",
        "name:bg": "String",
        "name:hr": "String",
        "name:sr": "String",
        "name:sq": "String",
        "name:el": "String",
        "name:eo": "String",
        "name:en": "String",
        "name": "String",
        "name:gd": "String",
        "name:ja_kana": "String",
        "level": "Number",
        "name:is": "String",
        "class": "String",
        "name:th": "String",
        "agg_stop": "Number",
        "name:latin": "String",
        "name:eu": "String",
        "name:et": "String",
        "name:nl": "String",
        "name:es": "String"
      },
      "minzoom": 0,
      "id": "poi",
      "description": ""
    },
    {
      "maxzoom": 7,
      "fields": {
        "name:mt": "String",
        "name:pt": "String",
        "name:az": "String",
        "name:id": "String",
        "name:cy": "String",
        "name:rm": "String",
        "name:ko": "String",
        "name:kn": "String",
        "name:ar": "String",
        "name:cs": "String",
        "name:co": "String",
        "name:tr": "String",
        "name_de": "String",
        "name:ro": "String",
        "name:am": "String",
        "name:it": "String",
        "name:ru": "String",
        "name:ml": "String",
        "name:pl": "String",
        "ele": "Number",
        "iata": "String",
        "name:ca": "String",
        "name_int": "String",
        "name:hu": "String",
        "name:ka": "String",
        "name:fi": "String",
        "name:da": "String",
        "name:de": "String",
        "name:oc": "String",
        "name:fr": "String",
        "name:mk": "String",
        "name:sl": "String",
        "name:nonlatin": "String",
        "name:fy": "String",
        "name:zh": "String",
        "name:ku": "String",
        "name:ko_rm": "String",
        "name:lv": "String",
        "name:ja": "String",
        "name:lt": "String",
        "name:no": "String",
        "name:kk": "String",
        "name:sv": "String",
        "name:he": "String",
        "name:ja_rm": "String",
        "name:ga": "String",
        "name:br": "String",
        "name:bs": "String",
        "name:lb": "String",
        "name:sr-Latn": "String",
        "name:la": "String",
        "name:sk": "String",
        "ele_ft": "Number",
        "name:uk": "String",
        "name:hy": "String",
        "name:be": "String",
        "name_en": "String",
        "name:bg": "String",
        "name:hr": "String",
        "name:sr": "String",
        "name:sq": "String",
        "name:el": "String",
        "name:eo": "String",
        "name:en": "String",
        "name": "String",
        "name:gd": "String",
        "icao": "String",
        "name:ja_kana": "String",
        "name:is": "String",
        "class": "String",
        "name:th": "String",
        "name:latin": "String",
        "name:eu": "String",
        "name:et": "String",
        "name:nl": "String",
        "name:es": "String"
      },
      "minzoom": 0,
      "id": "aerodrome_label",
      "description": ""
    }
  ],
  "maskLevel": "8",
  "planettime": "1581292800000",
  "mtime": "1581445940000",
  "version": "3.11"
}